[{"OBJECT_NAME":"OSCAR 7 (AO-7)","OBJECT_ID":"1974-089B","EPOCH":"2026-03-03T15:54:46.442592","MEAN_MOTION":12.53696252,"ECCENTRICITY":0.0012027,"INCLINATION":101.9969,"RA_OF_ASC_NODE":74.788,"ARG_OF_PERICENTER":333.8373,"MEAN_ANOMALY":145.2081,"EPHEMERIS_TYPE":0,"CLASSIFICATION_TYPE":"U","NORAD_CAT_ID":7530,"ELEMENT_SET_NO":999,"REV_AT_EPOCH":34729,"BSTAR":1.5322e-5,"MEAN_MOTION_DOT":-4.4e-7,"MEAN_MOTION_DDOT":0},{"OBJECT_NAME":"PHASE 3B (AO-10)","OBJECT_ID":"1983-058B","EPOCH":"2026-03-02T12:48:52.290720","MEAN_MOTION":2.05874052,"ECCENTRICITY":0.6049007,"INCLINATION":25.932,"RA_OF_ASC_NODE":237.486,"ARG_OF_PERICENTER":86.0782,"MEAN_ANOMALY":336.7646,"EPHEMERIS_TYPE":0,"CLASSIFICATION_TYPE":"U","NORAD_CAT_ID":14129,"ELEMENT_SET_NO":999,"REV_AT_EPOCH":29329,"BSTAR":0,"MEAN_MOTION_DOT":-1.64e-6,"MEAN_MOTION_DDOT":0},{"OBJECT_NAME":"UOSAT 2 (UO-11)","OBJECT_ID":"1984-021B","EPOCH":"2026-03-03T11:56:12.394752","MEAN_MOTION":14.90478819,"ECCENTRICITY":0.00078588,"INCLINATION":97.7937,"RA_OF_ASC_NODE":29.3491,"ARG_OF_PERICENTER":162.1253,"MEAN_ANOMALY":198.0243,"EPHEMERIS_TYPE":0,"CLASSIFICATION_TYPE":"U","NORAD_CAT_ID":14781,"ELEMENT_SET_NO":999,"REV_AT_EPOCH":24138,"BSTAR":0.00021301342,"MEAN_MOTION_DOT":2.024e-5,"MEAN_MOTION_DDOT":0},{"OBJECT_NAME":"LUSAT (LO-19)","OBJECT_ID":"1990-005G","EPOCH":"2026-03-03T14:53:51.602496","MEAN_MOTION":14.34085025,"ECCENTRICITY":0.0012108,"INCLINATION":98.8939,"RA_OF_ASC_NODE":81.4758,"ARG_OF_PERICENTER":151.336,"MEAN_ANOMALY":208.8491,"EPHEMERIS_TYPE":0,"CLASSIFICATION_TYPE":"U","NORAD_CAT_ID":20442,"ELEMENT_SET_NO":999,"REV_AT_EPOCH":88726,"BSTAR":8.8596e-5,"MEAN_MOTION_DOT":2.01e-6,"MEAN_MOTION_DDOT":0},{"OBJECT_NAME":"EYESAT A (AO-27)","OBJECT_ID":"1993-061C","EPOCH":"2026-03-03T16:38:34.426464","MEAN_MOTION":14.30910753,"ECCENTRICITY":0.0009211,"INCLINATION":98.6994,"RA_OF_ASC_NODE":130.0988,"ARG_OF_PERICENTER":55.1566,"MEAN_ANOMALY":305.0482,"EPHEMERIS_TYPE":0,"CLASSIFICATION_TYPE":"U","NORAD_CAT_ID":22825,"ELEMENT_SET_NO":999,"REV_AT_EPOCH":69191,"BSTAR":7.6005e-5,"MEAN_MOTION_DOT":1.55e-6,"MEAN_MOTION_DDOT":0},{"OBJECT_NAME":"ITAMSAT (IO-26)","OBJECT_ID":"1993-061D","EPOCH":"2026-03-03T18:34:41.695680","MEAN_MOTION":14.31334617,"ECCENTRICITY":0.0009515,"INCLINATION":98.6943,"RA_OF_ASC_NODE":130.0863,"ARG_OF_PERICENTER":39.5113,"MEAN_ANOMALY":320.6761,"EPHEMERIS_TYPE":0,"CLASSIFICATION_TYPE":"U","NORAD_CAT_ID":22826,"ELEMENT_SET_NO":999,"REV_AT_EPOCH":69223,"BSTAR":8.4654e-5,"MEAN_MOTION_DOT":1.8e-6,"MEAN_MOTION_DDOT":0},{"OBJECT_NAME":"RADIO ROSTO (RS15)","OBJECT_ID":"1994-085A","EPOCH":"2026-03-03T18:04:50.507904","MEAN_MOTION":11.27583827,"ECCENTRICITY":0.0152451,"INCLINATION":64.8146,"RA_OF_ASC_NODE":113.7348,"ARG_OF_PERICENTER":23.1474,"MEAN_ANOMALY":337.6224,"EPHEMERIS_TYPE":0,"CLASSIFICATION_TYPE":"U","NORAD_CAT_ID":23439,"ELEMENT_SET_NO":999,"REV_AT_EPOCH":28401,"BSTAR":0.00091777,"MEAN_MOTION_DOT":-1.0e-7,"MEAN_MOTION_DDOT":0},{"OBJECT_NAME":"JAS-2 (FO-29)","OBJECT_ID":"1996-046B","EPOCH":"2026-03-03T12:14:55.076352","MEAN_MOTION":13.53268418,"ECCENTRICITY":0.03500858,"INCLINATION":98.5391,"RA_OF_ASC_NODE":285.7656,"ARG_OF_PERICENTER":10.7932,"MEAN_ANOMALY":350.0477,"EPHEMERIS_TYPE":0,"CLASSIFICATION_TYPE":"U","NORAD_CAT_ID":24278,"ELEMENT_SET_NO":999,"REV_AT_EPOCH":45887,"BSTAR":1.9973457e-5,"MEAN_MOTION_DOT":-1.6e-7,"MEAN_MOTION_DDOT":0},{"OBJECT_NAME":"TECHSAT 1B (GO-32)","OBJECT_ID":"1998-043D","EPOCH":"2026-03-03T13:24:22.485312","MEAN_MOTION":14.24404107,"ECCENTRICITY":0.0001875,"INCLINATION":99.002,"RA_OF_ASC_NODE":52.6812,"ARG_OF_PERICENTER":129.2562,"MEAN_ANOMALY":230.8782,"EPHEMERIS_TYPE":0,"CLASSIFICATION_TYPE":"U","NORAD_CAT_ID":25397,"ELEMENT_SET_NO":999,"REV_AT_EPOCH":43629,"BSTAR":7.0908e-5,"MEAN_MOTION_DOT":1.17e-6,"MEAN_MOTION_DDOT":0},{"OBJECT_NAME":"ISS (ZARYA)","OBJECT_ID":"1998-067A","EPOCH":"2026-03-03T18:28:10.188768","MEAN_MOTION":15.48425902,"ECCENTRICITY":0.0008204,"INCLINATION":51.6317,"RA_OF_ASC_NODE":101.625,"ARG_OF_PERICENTER":153.6152,"MEAN_ANOMALY":206.5256,"EPHEMERIS_TYPE":0,"CLASSIFICATION_TYPE":"U","NORAD_CAT_ID":25544,"ELEMENT_SET_NO":999,"REV_AT_EPOCH":55541,"BSTAR":0.00019358,"MEAN_MOTION_DOT":0.00010027,"MEAN_MOTION_DDOT":0},{"OBJECT_NAME":"PCSAT (NO-44)","OBJECT_ID":"2001-043C","EPOCH":"2026-03-03T16:35:16.088352","MEAN_MOTION":14.31908513,"ECCENTRICITY":0.0007029,"INCLINATION":67.0509,"RA_OF_ASC_NODE":157.1258,"ARG_OF_PERICENTER":265.3965,"MEAN_ANOMALY":94.6334,"EPHEMERIS_TYPE":0,"CLASSIFICATION_TYPE":"U","NORAD_CAT_ID":26931,"ELEMENT_SET_NO":999,"REV_AT_EPOCH":27534,"BSTAR":0.00012407,"MEAN_MOTION_DOT":2.5e-6,"MEAN_MOTION_DDOT":0},{"OBJECT_NAME":"SAUDISAT 1C (SO-50)","OBJECT_ID":"2002-058C","EPOCH":"2026-03-03T13:08:13.257888","MEAN_MOTION":14.82753743,"ECCENTRICITY":0.0075104,"INCLINATION":64.551,"RA_OF_ASC_NODE":95.7694,"ARG_OF_PERICENTER":281.7708,"MEAN_ANOMALY":77.498,"EPHEMERIS_TYPE":0,"CLASSIFICATION_TYPE":"U","NORAD_CAT_ID":27607,"ELEMENT_SET_NO":999,"REV_AT_EPOCH":24879,"BSTAR":0.00027456,"MEAN_MOTION_DOT":2.181e-5,"MEAN_MOTION_DDOT":0},{"OBJECT_NAME":"CUTE-1 (CO-55)","OBJECT_ID":"2003-031E","EPOCH":"2026-03-03T14:13:05.995200","MEAN_MOTION":14.2426021,"ECCENTRICITY":0.0010485,"INCLINATION":98.6778,"RA_OF_ASC_NODE":72.4669,"ARG_OF_PERICENTER":128.3914,"MEAN_ANOMALY":231.8208,"EPHEMERIS_TYPE":0,"CLASSIFICATION_TYPE":"U","NORAD_CAT_ID":27844,"ELEMENT_SET_NO":999,"REV_AT_EPOCH":17664,"BSTAR":0.00021825,"MEAN_MOTION_DOT":4.6e-6,"MEAN_MOTION_DDOT":0},{"OBJECT_NAME":"CUBESAT XI-IV (CO-57)","OBJECT_ID":"2003-031J","EPOCH":"2026-03-03T10:59:29.555808","MEAN_MOTION":14.23556086,"ECCENTRICITY":0.00101181,"INCLINATION":98.6808,"RA_OF_ASC_NODE":72.1317,"ARG_OF_PERICENTER":145.3523,"MEAN_ANOMALY":214.8316,"EPHEMERIS_TYPE":0,"CLASSIFICATION_TYPE":"U","NORAD_CAT_ID":27848,"ELEMENT_SET_NO":999,"REV_AT_EPOCH":17633,"BSTAR":0.00018495315,"MEAN_MOTION_DOT":3.77e-6,"MEAN_MOTION_DDOT":0},{"OBJECT_NAME":"MOZHAETS 4 (RS22)","OBJECT_ID":"2003-042A","EPOCH":"2026-03-03T21:27:28.401408","MEAN_MOTION":14.73234879,"ECCENTRICITY":0.0010264,"INCLINATION":98.3424,"RA_OF_ASC_NODE":244.2942,"ARG_OF_PERICENTER":240.4052,"MEAN_ANOMALY":256.1827,"EPHEMERIS_TYPE":0,"CLASSIFICATION_TYPE":"U","NORAD_CAT_ID":27939,"ELEMENT_SET_NO":999,"REV_AT_EPOCH":20004,"BSTAR":0.00033151,"MEAN_MOTION_DOT":2.089e-5,"MEAN_MOTION_DDOT":0},{"OBJECT_NAME":"CUBESAT XI-V","OBJECT_ID":"2005-043F","EPOCH":"2026-03-03T09:29:25.679040","MEAN_MOTION":14.72285021,"ECCENTRICITY":0.00143794,"INCLINATION":98.2815,"RA_OF_ASC_NODE":215.9011,"ARG_OF_PERICENTER":177.156,"MEAN_ANOMALY":182.9731,"EPHEMERIS_TYPE":0,"CLASSIFICATION_TYPE":"U","NORAD_CAT_ID":28895,"ELEMENT_SET_NO":999,"REV_AT_EPOCH":8618,"BSTAR":0.00043695775,"MEAN_MOTION_DOT":2.713e-5,"MEAN_MOTION_DDOT":0}]
