OSCAR 7 (AO-7)          
1 07530U 74089B   26062.66303753 -.00000044  00000+0  15322-4 0  9997
2 07530 101.9969  74.7880 0012027 333.8373 145.2081 12.53696252347295
PHASE 3B (AO-10)        
1 14129U 83058B   26061.53393855 -.00000164  00000+0  00000+0 0  9997
2 14129  25.9320 237.4860 6049007  86.0782 336.7646  2.05874052293290
UOSAT 2 (UO-11)         
1 14781U 84021B   26062.49736568  .00002024  00000+0  21301-3 0  9997
2 14781  97.7937  29.3491 0007858 162.1253 198.0243 14.90478819241387
LUSAT (LO-19)           
1 20442U 90005G   26062.62073614  .00000201  00000+0  88596-4 0  9993
2 20442  98.8939  81.4758 0012108 151.3360 208.8491 14.34085025887269
EYESAT A (AO-27)        
1 22825U 93061C   26062.69345401  .00000155  00000+0  76005-4 0  9998
2 22825  98.6994 130.0988 0009211  55.1566 305.0482 14.30910753691917
ITAMSAT (IO-26)         
1 22826U 93061D   26062.77409370  .00000180  00000+0  84654-4 0  9991
2 22826  98.6943 130.0863 0009515  39.5113 320.6761 14.31334617692234
RADIO ROSTO (RS15)      
1 23439U 94085A   26062.75336236 -.00000010  00000+0  91777-3 0  9993
2 23439  64.8146 113.7348 0152451  23.1474 337.6224 11.27583827284014
JAS-2 (FO-29)           
1 24278U 96046B   26062.51035968 -.00000016  00000+0  19973-4 0  9991
2 24278  98.5391 285.7656 0350085  10.7932 350.0477 13.53268418458871
TECHSAT 1B (GO-32)      
1 25397U 98043D   26062.55859358  .00000117  00000+0  70908-4 0  9990
2 25397  99.0020  52.6812 0001875 129.2562 230.8782 14.24404107436291
ISS (ZARYA)             
1 25544U 98067A   26062.76956237  .00010027  00000+0  19358-3 0  9999
2 25544  51.6317 101.6250 0008204 153.6152 206.5256 15.48425902555413
PCSAT (NO-44)           
1 26931U 01043C   26062.69115843  .00000250  00000+0  12407-3 0  9995
2 26931  67.0509 157.1258 0007029 265.3965  94.6334 14.31908513275348
SAUDISAT 1C (SO-50)     
1 27607U 02058C   26062.54737567  .00002181  00000+0  27456-3 0  9995
2 27607  64.5510  95.7694 0075104 281.7708  77.4980 14.82753743248794
CUTE-1 (CO-55)          
1 27844U 03031E   26062.59243050  .00000460  00000+0  21825-3 0  9996
2 27844  98.6778  72.4669 0010485 128.3914 231.8208 14.24260210176642
CUBESAT XI-IV (CO-57)   
1 27848U 03031J   26062.45798097  .00000377  00000+0  18495-3 0  9997
2 27848  98.6808  72.1317 0010118 145.3523 214.8316 14.23556086176330
MOZHAETS 4 (RS22)       
1 27939U 03042A   26062.89407872  .00002089  00000+0  33151-3 0  9994
2 27939  98.3424 244.2942 0010264 240.4052 256.1827 14.73234879200044
CUBESAT XI-V            
1 28895U 05043F   26062.39543610  .00002713  00000+0  43696-3 0  9994
2 28895  98.2815 215.9011 0014379 177.1560 182.9731 14.72285021 86183
